SARSAT 7 (NOAA 15)      
1 25338U 98030A   22216.40848844  .00000086  00000+0  53946-4 0  9998
2 25338  98.6417 245.3111 0010960 152.4494 207.7269 14.26157394260104
METEOSAT-8 (MSG-1)      
1 27509U 02040B   22215.62966161  .00000139  00000+0  00000+0 0  9999
2 27509   8.1209  50.3910 0000175  57.4515 112.5337  1.00278559 73080
GPS BIIR-08             
1 27663U 03005A   22215.77393191  .00000023  00000+0  00000+0 0  9997
2 27663  55.4801 271.1824 0125377  41.1059  61.5722  2.00561780142963
GPS BIIR-11             
1 28190U 04009A   22215.81147365 -.00000067  00000+0  00000+0 0  9992
2 28190  55.9749 332.1760 0090448 123.2376 161.5813  2.00559452134591
GPS BIIR-13             
1 28474U 04045A   22215.61221535 -.00000059  00000+0  00000+0 0  9998
2 28474  55.3684  21.5533 0201465 279.5757 121.6748  2.00423642130081
SARSAT 10 (NOAA 18)     
1 28654U 05018A   22216.43681045  .00000086  00000+0  70268-4 0  9993
2 28654  98.9469 286.8302 0014162 191.7289 168.3555 14.12760519886845
GPS BIIR-14M            
1 28874U 05038A   22215.44739476 -.00000065  00000+0  00000+0 0  9991
2 28874  56.0391 329.6270 0138274 274.6046 131.9340  2.00573485123481
METEOSAT-9 (MSG-2)      
1 28912U 05049B   22215.76299285  .00000133  00000+0  00000+0 0  9995
2 28912   6.1210  65.9941 0000805 334.9451 231.6812  1.00272234 60864
GOES 13                 
1 29155U 06018A   22216.44146705  .00000045  00000+0  00000+0 0  9998
2 29155   0.7117  96.6980 0004960  92.4779 343.9993  1.00274121 59344
GPS BIIR-16M            
1 29601U 06052A   22215.44398868  .00000024  00000+0  00000+0 0  9997
2 29601  55.4885 270.1353 0082839  74.8969 286.0954  2.00553677115050
GPS BIIR-17M            
1 32260U 07047A   22215.75516560  .00000019  00000+0  00000+0 0  9996
2 32260  53.3254 138.5845 0141540  63.3947 298.0613  2.00572073108462
GPS BIIR-18M            
1 32384U 07062A   22215.79882727 -.00000066  00000+0  00000+0 0  9998
2 32384  56.1594 330.3804 0021106 141.4058  19.4389  2.00564815107166
SARSAT 12 (NOAA 19)     
1 33591U 09005A   22216.51438540  .00000088  00000+0  72524-4 0  9997
2 33591  99.1451 251.6538 0014719  55.9726 304.2841 14.12594810695230
GOES 14                 
1 35491U 09033A   22216.34207273 -.00000085  00000+0  00000+0 0  9990
2 35491   0.4259  94.7532 0014052 116.1841 120.5224  1.00272288 47982
GOES 15                 
1 36411U 10008A   22216.37233462  .00000062  00000+0  00000+0 0  9993
2 36411   0.4617 276.2906 0004376 233.4157 169.2637  1.00266368 45502
GPS BIIF-2              
1 37753U 11036A   22215.83834041 -.00000052  00000+0  00000+0 0  9995
2 37753  56.6278  26.8600 0118507  53.0087 286.1518  2.00565661 80929
GSAT0101 (GALILEO-PFM)  
1 37846U 11060A   22216.35176933 -.00000059  00000+0  00000+0 0  9999
2 37846  57.0152  20.0351 0003016  63.2344 296.8158  1.70474987 67169
GSAT0102 (GALILEO-FM2)  
1 37847U 11060B   22213.64139189 -.00000062  00000+0  00000+0 0  9995
2 37847  57.0145  20.1083 0002126  18.0245 165.3289  1.70475456 66991
LUCH 5A                 
1 37951U 11074B   22215.89403123 -.00000042  00000+0  00000+0 0  9995
2 37951   5.1322  96.8000 0005040  22.4030 322.1922  1.00268739 39013
METEOSAT-10 (MSG-3)     
1 38552U 12035B   22215.79078600  .00000067  00000+0  00000+0 0  9994
2 38552   1.5898  43.7786 0000908  30.2796 172.2802  1.00266859 36687
SARSAT 13 (METOP-B)     
1 38771U 12049A   22216.49084706  .00000009  00000+0  24246-4 0  9993
2 38771  98.6927 275.5256 0000438  92.1151 330.5251 14.21499253512552
GPS BIIF-3              
1 38833U 12053A   22215.85145004  .00000092  00000+0  00000+0 0  9994
2 38833  53.5299 201.4090 0125724  46.5731 314.4613  2.00562355 71090
GSAT0103 (GALILEO-FM3)  
1 38857U 12055A   22215.21800766  .00000018  00000+0  00000+0 0  9993
2 38857  55.1499 140.4137 0003975 269.7756  90.1862  1.70473735 60900
GSAT0104 (GALILEO-FM4)  
1 38858U 12055B   22215.77463723  .00000017  00000+0  00000+0 0  9992
2 38858  55.1504 140.4002 0001510 274.8954  85.0952  1.70474015 61028
GPS BIIF-4              
1 39166U 13023A   22215.70984148 -.00000063  00000+0  00000+0 0  9995
2 39166  55.6642 325.9707 0103950  38.6490 322.1194  2.00565581 67531
INSAT-3D                
1 39216U 13038B   22215.85604927 -.00000150  00000+0  00000+0 0  9994
2 39216   0.0166  89.0546 0001212  72.5828 181.1196  1.00270455 32923
GPS BIIF-5              
1 39533U 14008A   22215.21219257  .00000089  00000+0  00000+0 0  9992
2 39533  53.6230 206.9462 0060698 209.7244 149.9305  2.00556098 61328
LUCH 5V                 
1 39727U 14023A   22215.80779006 -.00000263  00000+0  00000+0 0  9997
2 39727   1.6040  76.0576 0003377  73.8399 187.9760  1.00273730 30184
GPS BIIF-6              
1 39741U 14026A   22215.49374021 -.00000053  00000+0  00000+0 0  9996
2 39741  56.5887  26.3993 0026183 306.3462  53.4404  2.00552637 60186
GPS BIIF-7              
1 40105U 14045A   22215.57601736  .00000030  00000+0  00000+0 0  9992
2 40105  54.7012 144.9236 0020945 111.0441 249.1859  2.00550400 57727
GSAT0201 (GALILEO 5)    
1 40128U 14050A   22215.10234917 -.00000085  00000+0  00000+0 0  9996
2 40128  50.2525 330.4251 1624615 125.7478 250.4922  1.85519043 52088
GSAT0202 (GALILEO 6)    
1 40129U 14050B   22215.36318662 -.00000085  00000+0  00000+0 0  9995
2 40129  50.2766 329.4767 1621743 126.5676 249.4987  1.85519600 54253
GPS BIIF-8              
1 40294U 14068A   22215.45051809 -.00000022  00000+0  00000+0 0  9995
2 40294  55.8494  86.0785 0042394  56.8161 303.6680  2.00574792 56855
GLONASS-K 2             
1 40315U 14075A   22216.39574720  .00000094  00000+0  00000+0 0  9991
2 40315  63.6841 239.4921 0019411 211.7474 174.9436  2.13101498 59754
GPS BIIF-9              
1 40534U 15013A   22215.59282551  .00000036  00000+0  00000+0 0  9992
2 40534  53.6745 262.7424 0069401  20.2220 340.1258  2.00549467 53472
GSAT0203 (GALILEO 7)    
1 40544U 15017A   22215.54557354 -.00000060  00000+0  00000+0 0  9996
2 40544  56.8100  20.0837 0001832 208.1925 151.8163  1.70475995 45102
GSAT0204 (GALILEO 8)    
1 40545U 15017B   22215.21179680 -.00000060  00000+0  00000+0 0  9993
2 40545  56.8156  20.1055 0002358 184.1970 175.8194  1.70475699  8148
GPS BIIF-10             
1 40730U 15033A   22215.75343890 -.00000063  00000+0  00000+0 0  9995
2 40730  55.1614 324.7755 0073659   7.8990 352.2477  2.00575973 51648
METEOSAT-11 (MSG-4)     
1 40732U 15034A   22215.78895479  .00000002  00000+0  00000+0 0  9998
2 40732   0.3835  66.3505 0001408  29.6738 140.2979  1.00265471 25858
GSAT0205 (GALILEO 9)    
1 40889U 15045A   22213.80585055  .00000046  00000+0  00000+0 0  9998
2 40889  55.5945 260.7108 0003523 342.2535  17.8202  1.70473530 42887
GSAT0206 (GALILEO 10)   
1 40890U 15045B   22216.37295371  .00000047  00000+0  00000+0 0  9995
2 40890  55.5920 260.6358 0002194 320.2528  39.8097  1.70473671 42959
GPS BIIF-11             
1 41019U 15062A   22215.30095661 -.00000022  00000+0  00000+0 0  9994
2 41019  55.8374  85.9282 0078873 217.5845 141.9383  2.00562671 49470
ELEKTRO-L 2             
1 41105U 15074A   22215.85775587 -.00000109  00000+0  00000+0 0  9991
2 41105   3.1039  87.6094 0002149  80.2463  78.8674  1.00273314 24346
GSAT0209 (GALILEO 12)   
1 41174U 15079A   22213.02759527  .00000011  00000+0  00000+0 0  9996
2 41174  55.1660 140.1781 0004375 315.1172  44.8462  1.70474050 40632
GSAT0208 (GALILEO 11)   
1 41175U 15079B   22213.83364480  .00000015  00000+0  00000+0 0  9990
2 41175  55.1644 140.1546 0003839 313.6402  46.3313  1.70474066 41064
GPS BIIF-12             
1 41328U 16007A   22215.39037325  .00000032  00000+0  00000+0 0  9999
2 41328  54.9174 145.6141 0062303 230.5681 128.8847  2.00568551 47484
GSAT0211 (GALILEO 14)   
1 41549U 16030A   22212.77983499  .00000047  00000+0  00000+0 0  9997
2 41549  55.7397 260.6728 0004037 301.2799  58.7716  1.70475295 38507
GSAT0210 (GALILEO 13)   
1 41550U 16030B   22214.24559130  .00000046  00000+0  00000+0 0  9993
2 41550  55.7384 260.6338 0005119 273.0890  86.9366  1.70475187 38540
INSAT-3DR               
1 41752U 16054A   22216.09069793 -.00000069  00000+0  00000+0 0  9995
2 41752   0.0237  94.1750 0010352 172.6493 152.4692  1.00269744 21636
GSAT0207 (GALILEO 15)   
1 41859U 16069A   22215.08074862  .00000017  00000+0  00000+0 0  9992
2 41859  54.8270 140.2914 0004398 301.1839  58.7801  1.70472685 35293
GSAT0212 (GALILEO 16)   
1 41860U 16069B   22213.17437926  .00000012  00000+0  00000+0 0  9991
2 41860  54.8241 140.3418 0003309 326.8401  33.1382  1.70472678 35511
GSAT0213 (GALILEO 17)   
1 41861U 16069C   22215.29952083  .00000017  00000+0  00000+0 0  9998
2 41861  54.8269 140.2882 0004038 279.0131  80.9487  1.70472881 35416
GSAT0214 (GALILEO 18)   
1 41862U 16069D   22213.10027149  .00000012  00000+0  00000+0 0  9998
2 41862  54.8246 140.3436 0003196 285.2504  74.7130  1.70472746 35501
GOES 16                 
1 41866U 16071A   22216.41716204 -.00000241  00000+0  00000+0 0  9994
2 41866   0.0559 256.3260 0000499 260.4595 231.1504  1.00271556 20941
GSAT-17                 
1 42815U 17040B   22215.80761566 -.00000251  00000+0  00000+0 0  9990
2 42815   0.0458  99.1381 0002157 132.6645 104.7808  1.00273432 18618
GSAT0215 (GALILEO 19)   
1 43055U 17079A   22213.00409435  .00000047  00000+0  00000+0 0  9995
2 43055  55.7154 260.4983 0003745 265.1704  94.8766  1.70474452 28848
GSAT0216 (GALILEO 20)   
1 43056U 17079B   22215.05601924  .00000046  00000+0  00000+0 0  9999
2 43056  55.7145 260.4416 0005333 270.5686  89.4513  1.70474541 28898
GSAT0217 (GALILEO 21)   
1 43057U 17079C   22213.51652833  .00000047  00000+0  00000+0 0  9995
2 43057  55.7135 260.4838 0004731 280.1773  79.8567  1.70474593 28856
GSAT0218 (GALILEO 22)   
1 43058U 17079D   22213.14998716  .00000047  00000+0  00000+0 0  9998
2 43058  55.7137 260.4911 0005834 267.6808  92.3415  1.70474531 28871
GOES 17                 
1 43226U 18022A   22215.76157388  .00000105  00000+0  00000+0 0  9991
2 43226   0.0934 264.6233 0000331 207.4493 337.0902  1.00271694 16244
